[{"OBJECT_NAME":"STARLINK-6264","OBJECT_ID":"2023-061BH","EPOCH":"2026-03-09T08:10:45.718752","MEAN_MOTION":15.02534581,"ECCENTRICITY":0.00015091,"INCLINATION":43.0023,"RA_OF_ASC_NODE":173.2245,"ARG_OF_PERICENTER":271.8773,"MEAN_ANOMALY":88.1896,"EPHEMERIS_TYPE":0,"CLASSIFICATION_TYPE":"U","NORAD_CAT_ID":56429,"ELEMENT_SET_NO":999,"REV_AT_EPOCH":15700,"BSTAR":3.0339261e-5,"MEAN_MOTION_DOT":2.06e-6,"MEAN_MOTION_DDOT":0},{"OBJECT_NAME":"FENGYUN 1C DEB","OBJECT_ID":"1999-025AQU","EPOCH":"2026-03-09T01:25:03.420768","MEAN_MOTION":14.74992504,"ECCENTRICITY":0.01405011,"INCLINATION":99.0317,"RA_OF_ASC_NODE":276.8472,"ARG_OF_PERICENTER":211.6472,"MEAN_ANOMALY":309.6318,"EPHEMERIS_TYPE":0,"CLASSIFICATION_TYPE":"U","NORAD_CAT_ID":30686,"ELEMENT_SET_NO":999,"REV_AT_EPOCH":874,"BSTAR":0.0010181927,"MEAN_MOTION_DOT":7.973e-5,"MEAN_MOTION_DDOT":0}]
